{"spkid": "50377507", "covariance": {"data": [["2.908181155995947E-14", "-4.992711134647946E-14", "8.275234497514351E-13", "-1.187811012980802E-12", "1.247986474485936E-13", "-4.131314785112388E-12"], ["-4.992711134647946E-14", "8.57165034649883E-14", "-1.466550883469389E-12", "2.059320460115102E-12", "-2.80217874077324E-13", "7.126997718222116E-12"], ["8.275234497514351E-13", "-1.466550883469389E-12", "9.797343420984517E-10", "-4.316012285262357E-10", "1.361383532707209E-9", "-8.246817739900252E-10"], ["-1.187811012980802E-12", "2.059320460115102E-12", "-4.316012285262357E-10", "4.664745732023831E-10", "-8.217581319371879E-10", "4.178657841965484E-10"], ["1.247986474485936E-13", "-2.80217874077324E-13", "1.361383532707209E-9", "-8.217581319371879E-10", "2.185831413319281E-9", "-9.757417675029421E-10"], ["-4.131314785112388E-12", "7.126997718222116E-12", "-8.246817739900252E-10", "4.178657841965484E-10", "-9.757417675029421E-10", "1.217856424613528E-9"]], "elements": [{"label": "e", "name": "e", "sigma": 1.70533901497501e-07, "title": "eccentricity", "value": ".523675433543445", "units": null}, {"label": "q", "value": ".7996699382131743", "title": "perihelion distance", "units": "au", "name": "q", "sigma": 2.92773809390438e-07}, {"label": "tp", "name": "tp", "sigma": 3.13007083322159e-05, "value": "2455771.507781683822", "title": "time of perihelion passage", "units": "TDB"}, {"sigma": 2.15980224373062e-05, "name": "om", "title": "longitude of the ascending node", "value": "81.06433942334863", "units": "deg", "label": "node"}, {"sigma": 4.67528759898178e-05, "name": "w", "units": "deg", "title": "argument of perihelion", "value": "78.67319898752055", "label": "peri"}, {"label": "i", "units": "deg", "title": "inclination", "value": "9.214025986533121", "name": "i", "sigma": 3.48977997102042e-05}], "labels": ["e", "q", "tp", "node", "peri", "i"], "epoch": "2455982.5"}, "elements": [{"title": "eccentricity", "value": ".5240650161084006", "units": null, "name": "e", "sigma": "1.7078E-7", "label": "e"}, {"units": "au", "title": "semi-major axis", "value": "1.678098863126513", "sigma": "1.499E-8", "name": "a", "label": "a"}, {"label": "q", "sigma": "2.9369E-7", "name": "q", "title": "perihelion distance", "value": ".7986659553906281", "units": "au"}, {"units": "deg", "title": "inclination; angle with respect to x-y ecliptic plane", "value": "9.206900383098228", "sigma": "3.4877E-5", "name": "i", "label": "i"}, {"sigma": "2.17E-5", "name": "om", "units": "deg", "title": "longitude of the ascending node", "value": "80.88344566300724", "label": "node"}, {"label": "peri", "units": "deg", "title": "argument of perihelion", "value": "78.91506298009666", "sigma": "4.6705E-5", "name": "w"}, {"title": "mean anomaly", "value": "300.7121686834151", "units": "deg", "sigma": "3.2064E-5", "name": "ma", "label": "M"}, {"sigma": "7.2375E-5", "name": "tp", "title": "time of perihelion passage", "value": "2461331.263882132614", "units": "TDB", "label": "tp"}, {"label": "period", "units": "d", "value": "794.0077503656752", "title": "sidereal orbital period", "name": "per", "sigma": "1.0639E-5"}, {"label": "n", "title": "mean motion", "value": ".4533960781040289", "units": "deg/d", "sigma": "6.0749E-9", "name": "n"}, {"sigma": "2.2845E-8", "name": "ad", "value": "2.557531770862397", "title": "aphelion distance", "units": "au", "label": "Q"}], "epoch": "2461200.5"}